{
  "norad_id": 65436,
  "name": "STARLINK-35043",
  "history": [
    {
      "epoch": "2026-04-11T20:59:12.562080Z",
      "apogee_km": 565.0677531522224,
      "perigee_km": 560.9266724808549,
      "latitude_deg": -8.03042956045253e-05,
      "longitude_deg": 162.7836918638408,
      "height_km": 565.1259238156163,
      "semi_major_axis_km": 6941.134212816538,
      "eccentricity": 0.0002983,
      "inclination_deg": 97.6043,
      "raan_deg": 317.6737,
      "arg_perigee_deg": 63.4401,
      "mean_anomaly_deg": 296.7128,
      "mean_motion_rev_day": 15.01264099
    },
    {
      "epoch": "2026-04-13T00:10:51.710880Z",
      "apogee_km": 565.1053563661808,
      "perigee_km": 560.8976382091241,
      "latitude_deg": 5.837771216098598e-06,
      "longitude_deg": 114.86313328748797,
      "height_km": 565.0709537204195,
      "semi_major_axis_km": 6941.138497287652,
      "eccentricity": 0.0003031,
      "inclination_deg": 97.6039,
      "raan_deg": 318.7831,
      "arg_perigee_deg": 62.0825,
      "mean_anomaly_deg": 298.0706,
      "mean_motion_rev_day": 15.01262709
    },
    {
      "epoch": "2026-04-14T20:58:17.380128Z",
      "apogee_km": 565.1605434573548,
      "perigee_km": 560.8292771453271,
      "latitude_deg": 2.738473762879769e-05,
      "longitude_deg": 162.99399814991767,
      "height_km": 564.9779862506903,
      "semi_major_axis_km": 6941.13191030134,
      "eccentricity": 0.000312,
      "inclination_deg": 97.6032,
      "raan_deg": 320.6104,
      "arg_perigee_deg": 60.3498,
      "mean_anomaly_deg": 299.8037,
      "mean_motion_rev_day": 15.01264846
    },
    {
      "epoch": "2026-04-15T20:00:01.999008Z",
      "apogee_km": 553.3404511730314,
      "perigee_km": 551.2128141877993,
      "latitude_deg": 31.83802793062962,
      "longitude_deg": 2.2789146282093102,
      "height_km": 555.900259776843,
      "semi_major_axis_km": 6930.4136326804155,
      "eccentricity": 0.0001535,
      "inclination_deg": 97.602,
      "raan_deg": 321.5493,
      "arg_perigee_deg": 89.2636,
      "mean_anomaly_deg": 58.6291,
      "mean_motion_rev_day": 15.04748879
    },
    {
      "epoch": "2026-04-16T20:00:01.999008Z",
      "apogee_km": 553.0603304279975,
      "perigee_km": 551.0117712741658,
      "latitude_deg": 17.976138727583766,
      "longitude_deg": 0.017339999211899097,
      "height_km": 554.2143567015463,
      "semi_major_axis_km": 6930.173050851082,
      "eccentricity": 0.0001478,
      "inclination_deg": 97.6019,
      "raan_deg": 322.5328,
      "arg_perigee_deg": 89.6545,
      "mean_anomaly_deg": 72.18,
      "mean_motion_rev_day": 15.04827236
    },
    {
      "epoch": "2026-04-17T22:00:01.999584Z",
      "apogee_km": 553.2748308954715,
      "perigee_km": 550.9651148515522,
      "latitude_deg": -81.87684788558472,
      "longitude_deg": -100.87527690180839,
      "height_km": 581.591219209848,
      "semi_major_axis_km": 6930.256972873512,
      "eccentricity": 0.00016664,
      "inclination_deg": 97.6017,
      "raan_deg": 323.599,
      "arg_perigee_deg": 91.1924,
      "mean_anomaly_deg": 175.8024,
      "mean_motion_rev_day": 15.04799902
    },
    {
      "epoch": "2026-04-18T20:00:01.000224Z",
      "apogee_km": 553.2086346085352,
      "perigee_km": 550.8038748991357,
      "latitude_deg": -9.86805782716839,
      "longitude_deg": -3.772708308468172,
      "height_km": 557.0839905822492,
      "semi_major_axis_km": 6930.143254753835,
      "eccentricity": 0.0001735,
      "inclination_deg": 97.5993,
      "raan_deg": 324.5007,
      "arg_perigee_deg": 89.8207,
      "mean_anomaly_deg": 99.9331,
      "mean_motion_rev_day": 15.04836941
    },
    {
      "epoch": "2026-04-19T20:41:36.377376Z",
      "apogee_km": 553.3499756377068,
      "perigee_km": 550.6056501717976,
      "latitude_deg": -4.536467213406945e-05,
      "longitude_deg": 167.1490512360543,
      "height_km": 554.9320767314182,
      "semi_major_axis_km": 6930.114812904752,
      "eccentricity": 0.000198,
      "inclination_deg": 97.5985,
      "raan_deg": 325.5114,
      "arg_perigee_deg": 85.5395,
      "mean_anomaly_deg": 274.6057,
      "mean_motion_rev_day": 15.04846205
    },
    {
      "epoch": "2026-04-20T04:40:22.223424Z",
      "apogee_km": 553.621870413237,
      "perigee_km": 550.4159802821705,
      "latitude_deg": -3.8281918443061494e-05,
      "longitude_deg": 47.4550221079904,
      "height_km": 554.9466275996449,
      "semi_major_axis_km": 6930.1559253477035,
      "eccentricity": 0.0002313,
      "inclination_deg": 97.5956,
      "raan_deg": 325.8361,
      "arg_perigee_deg": 85.2496,
      "mean_anomaly_deg": 274.8994,
      "mean_motion_rev_day": 15.04832814
    },
    {
      "epoch": "2026-04-21T20:34:09.422400Z",
      "apogee_km": 553.479337442971,
      "perigee_km": 550.5173975868956,
      "latitude_deg": -1.1439338674302444e-05,
      "longitude_deg": 169.00556338183358,
      "height_km": 555.0275847437327,
      "semi_major_axis_km": 6930.135367514933,
      "eccentricity": 0.0002137,
      "inclination_deg": 97.5912,
      "raan_deg": 327.4718,
      "arg_perigee_deg": 88.7739,
      "mean_anomaly_deg": 271.3732,
      "mean_motion_rev_day": 15.0483951
    },
    {
      "epoch": "2026-04-22T20:30:26.152704Z",
      "apogee_km": 553.5016032656767,
      "perigee_km": 550.5257965551364,
      "latitude_deg": -3.3381982116646477e-05,
      "longitude_deg": 169.9332563046798,
      "height_km": 555.0839472424581,
      "semi_major_axis_km": 6930.150699910407,
      "eccentricity": 0.0002147,
      "inclination_deg": 97.5863,
      "raan_deg": 328.4523,
      "arg_perigee_deg": 90.3547,
      "mean_anomaly_deg": 269.7925,
      "mean_motion_rev_day": 15.04834516
    },
    {
      "epoch": "2026-04-23T02:53:26.586240Z",
      "apogee_km": 553.4759332600524,
      "perigee_km": 550.5468367436488,
      "latitude_deg": 5.171926084376573e-05,
      "longitude_deg": 74.17927893751292,
      "height_km": 555.0833830045877,
      "semi_major_axis_km": 6930.14838500185,
      "eccentricity": 0.00021133,
      "inclination_deg": 97.5829,
      "raan_deg": 328.7123,
      "arg_perigee_deg": 90.4231,
      "mean_anomaly_deg": 269.7238,
      "mean_motion_rev_day": 15.0483527
    },
    {
      "epoch": "2026-04-24T13:59:58.911072Z",
      "apogee_km": 553.7573189218247,
      "perigee_km": 550.2104830447015,
      "latitude_deg": -2.4215695245169936e-06,
      "longitude_deg": -92.46377732098401,
      "height_km": 554.8139629321032,
      "semi_major_axis_km": 6930.120900983263,
      "eccentricity": 0.0002559,
      "inclination_deg": 97.5785,
      "raan_deg": 330.1458,
      "arg_perigee_deg": 82.5334,
      "mean_anomaly_deg": 277.6183,
      "mean_motion_rev_day": 15.04844222
    },
    {
      "epoch": "2026-04-25T13:56:15.563616Z",
      "apogee_km": 553.7924567160117,
      "perigee_km": 550.2081896924501,
      "latitude_deg": 2.1011190258468183e-05,
      "longitude_deg": -91.53586347327983,
      "height_km": 554.7082569118892,
      "semi_major_axis_km": 6930.137323204231,
      "eccentricity": 0.0002586,
      "inclination_deg": 97.5717,
      "raan_deg": 331.1262,
      "arg_perigee_deg": 78.6484,
      "mean_anomaly_deg": 281.5033,
      "mean_motion_rev_day": 15.04838873
    },
    {
      "epoch": "2026-04-26T20:15:32.492448Z",
      "apogee_km": 553.4947007060855,
      "perigee_km": 550.494923849823,
      "latitude_deg": 6.656601437740256e-05,
      "longitude_deg": 173.63653977171458,
      "height_km": 555.0865073139643,
      "semi_major_axis_km": 6930.131812277954,
      "eccentricity": 0.00021643,
      "inclination_deg": 97.5681,
      "raan_deg": 332.3644,
      "arg_perigee_deg": 91.1523,
      "mean_anomaly_deg": 268.9952,
      "mean_motion_rev_day": 15.04840668
    },
    {
      "epoch": "2026-04-27T20:11:49.202016Z",
      "apogee_km": 553.7424839927316,
      "perigee_km": 550.2552396270694,
      "latitude_deg": -6.857353097075363e-05,
      "longitude_deg": 174.56063750583385,
      "height_km": 554.917686904315,
      "semi_major_axis_km": 6930.1358618099,
      "eccentricity": 0.0002516,
      "inclination_deg": 97.5638,
      "raan_deg": 333.3412,
      "arg_perigee_deg": 85.3223,
      "mean_anomaly_deg": 274.829,
      "mean_motion_rev_day": 15.04839349
    },
    {
      "epoch": "2026-04-28T20:08:05.818272Z",
      "apogee_km": 553.2871981562676,
      "perigee_km": 550.723045571177,
      "latitude_deg": -3.602034165259665e-05,
      "longitude_deg": 175.4843028984003,
      "height_km": 555.0864349695688,
      "semi_major_axis_km": 6930.1421218637215,
      "eccentricity": 0.000185,
      "inclination_deg": 97.5602,
      "raan_deg": 334.3172,
      "arg_perigee_deg": 90.8487,
      "mean_anomaly_deg": 269.2951,
      "mean_motion_rev_day": 15.0483731
    },
    {
      "epoch": "2026-04-29T20:04:22.285056Z",
      "apogee_km": 553.2704051861074,
      "perigee_km": 550.7118018902811,
      "latitude_deg": 1.6278200429654385e-05,
      "longitude_deg": 176.40818979803637,
      "height_km": 555.0948627383109,
      "semi_major_axis_km": 6930.1281035381935,
      "eccentricity": 0.0001846,
      "inclination_deg": 97.5558,
      "raan_deg": 335.2928,
      "arg_perigee_deg": 91.8499,
      "mean_anomaly_deg": 268.2939,
      "mean_motion_rev_day": 15.04841876
    },
    {
      "epoch": "2026-04-30T13:37:38.087616Z",
      "apogee_km": 553.3152803282937,
      "perigee_km": 550.6211326282237,
      "latitude_deg": 1.5707840697490624e-05,
      "longitude_deg": -86.91368751324956,
      "height_km": 554.9609183541128,
      "semi_major_axis_km": 6930.105206478259,
      "eccentricity": 0.00019438,
      "inclination_deg": 97.5511,
      "raan_deg": 336.0077,
      "arg_perigee_deg": 87.0339,
      "mean_anomaly_deg": 273.111,
      "mean_motion_rev_day": 15.04849334
    }
  ]
}